[{"OBJECT_NAME":"KAZSTSAT","OBJECT_ID":"2018-099AB","EPOCH":"2026-03-09T14:51:18.118944","MEAN_MOTION":14.99620503,"ECCENTRICITY":0.0006528,"INCLINATION":97.4396,"RA_OF_ASC_NODE":105.0128,"ARG_OF_PERICENTER":11.1145,"MEAN_ANOMALY":349.0222,"EPHEMERIS_TYPE":0,"CLASSIFICATION_TYPE":"U","NORAD_CAT_ID":43783,"ELEMENT_SET_NO":999,"REV_AT_EPOCH":39638,"BSTAR":0.00011446,"MEAN_MOTION_DOT":1.354e-5,"MEAN_MOTION_DDOT":0},{"OBJECT_NAME":"STARLINK-35856","OBJECT_ID":"2025-293L","EPOCH":"2026-03-09T19:34:59.485728","MEAN_MOTION":14.98330046,"ECCENTRICITY":0.00028552,"INCLINATION":70.0021,"RA_OF_ASC_NODE":94.2635,"ARG_OF_PERICENTER":271.6812,"MEAN_ANOMALY":88.402,"EPHEMERIS_TYPE":0,"CLASSIFICATION_TYPE":"U","NORAD_CAT_ID":67013,"ELEMENT_SET_NO":999,"REV_AT_EPOCH":1490,"BSTAR":0.00042668337,"MEAN_MOTION_DOT":5.002e-5,"MEAN_MOTION_DDOT":0}]
